49214,ONEWEB-0350,2021,109.63,148.0,+,87.89,Active,1,LEO,Kazakhstan,UK,Commercial,Communications,Soyuz,1 49214U 21083AE  25009.17034561 -.00000259  00000+0 -74494-3 0  9995,2 49214  87.8905  64.4288 0002196 100.5276 259.6101 13.13468157162147,13.13468157,0.0002196,LEO
49215,ONEWEB-0351,2021,109.03,148.0,+,87.92,Active,1,LEO,Kazakhstan,UK,Commercial,Communications,Soyuz,1 49215U 21083AF  25009.24946719 -.00000035  00000+0 -11882-3 0  9995,2 49215  87.9241  18.6772 0001671 120.0187 240.1112 13.20772525167615,13.20772525,0.0001671,LEO
49216,ONEWEB-0352,2021,109.63,148.0,+,87.89,Active,1,LEO,Kazakhstan,UK,Commercial,Communications,Soyuz,1 49216U 21083AG  25009.15131035  .00000144  00000+0  35833-3 0  9994,2 49216  87.8908  64.4696 0001859 115.2829 244.8493 13.13470570162239,13.1347057,0.0001859,LEO
49217,ONEWEB-0354,2021,109.03,148.0,+,87.92,Active,1,LEO,Kazakhstan,UK,Commercial,Communications,Soyuz,1 49217U 21083AH  25009.27486551  .00000116  00000+0  25420-3 0  9994,2 49217  87.9245  18.6646 0002201  91.4113 268.7273 13.20773979167653,13.20773979,0.0002201,LEO
49218,ONEWEB-0355,2021,109.63,148.0,+,87.89,Active,1,LEO,Kazakhstan,UK,Commercial,Communications,Soyuz,1 49218U 21083AJ  25009.18145015 -.00000191  00000+0 -55878-3 0  9997,2 49218  87.8907  64.4625 0002006 104.7133 255.4219 13.13468520162111,13.1346852,0.0002006,LEO
49219,ONEWEB-0357,2021,109.03,148.0,+,87.92,Active,1,LEO,Kazakhstan,UK,Commercial,Communications,Soyuz,1 49219U 21083AK  25009.27171242  .00000079  00000+0  16288-3 0  9994,2 49219  87.9241  18.6767 0001830  96.3439 263.7903 13.20772115167653,13.20772115,0.000183,LEO
49279,ONEWEB-0332,2021,109.55,148.0,+,87.9,Active,1,LEO,Russia,UK,Commercial,Communications,Soyuz,1 49279U 21090A   25009.29991598  .00000054  00000+0  11009-3 0  9993,2 49279  87.8987  33.8924 0001469  96.7754 263.3543 13.14504741158759,13.14504741,0.0001469,LEO
49280,ONEWEB-0347,2021,109.03,148.0,+,87.92,Active,1,LEO,Russia,UK,Commercial,Communications,Soyuz,1 49280U 21090B   25009.26223691  .00000107  00000+0  23117-3 0  9996,2 49280  87.9244  18.6828 0001395  86.7924 273.3369 13.20771853161880,13.20771853,0.0001395,LEO
